No,District,Name,Tel,Address
1,板橋區,新北市板橋區板橋國民小學附設幼兒園,(02)29650480,[220]新北市板橋區黃石里10鄰文化路一段23號
2,板橋區,新北市板橋區國光國民小學附設幼兒園,(02)29680611#518,[220]新北市板橋區香社里1鄰中正路325巷30號
3,板橋區,新北市立板橋幼兒園,02-29682497,[220]新北市板橋區中正里5鄰中正路375巷48號
4,板橋區,新北市立板橋幼兒園公館分班,(02)29690278,[220]新北市板橋區漢生里8鄰光正街57號2樓
5,板橋區,新北市板橋區文德國民小學附設幼兒園,(02)22577193#36,[220]新北市板橋區幸福里11鄰英士路179號
6,板橋區,新北市板橋區新埔國民小學附設幼兒園,(02)22571830#681,[220]新北市板橋區新翠里4鄰陽明街206號
7,板橋區,新北市板橋區江翠國民小學附設幼兒園,(02)22506374,[220]新北市板橋區柏翠里2鄰文化路二段413號
8,板橋區,新北市板橋區莒光國民小學附設幼兒園,(02)82597020,[220]新北市板橋區華翠里12鄰莒光路163號
9,板橋區,新北市立板橋幼兒園新民分班,02-22558468,[220]新北市板橋區福翠里3鄰懷德街235巷2號
10,板橋區,新北市板橋區埔墘國民小學附設幼兒園,(02)29616690#282,[220]新北市板橋區光仁里14鄰永豐街42之8號
11,板橋區,新北市板橋區海山國民小學附設幼兒園,(02)29545725#549,[220]新北市板橋區深丘里12鄰漢生東路280號
12,板橋區,新北市板橋區實踐國民小學附設幼兒園,(02)29585953#310,[220]新北市板橋區國泰里5鄰實踐路93巷51號
13,板橋區,新北市板橋區後埔國民小學附設幼兒園,(02)29614142#18,[220]新北市板橋區福星里17鄰重慶路157號
14,板橋區,新北市立忠孝國民中學附設幼兒園,(02)29631350#301,[220]新北市板橋區福星里3鄰成都街30號
15,板橋區,新北市立重慶國民中學附設幼兒園,(02)29543001#602,[220]新北市板橋區重慶里31鄰國慶路221號
16,板橋區,新北市立板橋幼兒園和平分班,02-29646945,[220]新北市板橋區廣福里4鄰重慶路355號
17,板橋區,新北市板橋區信義國民小學附設幼兒園,(02)89667817#171,[220]新北市板橋區華德里23鄰四川路二段245巷60號
18,板橋區,新北市板橋區大觀國民小學附設幼兒園,(02)29603373#880,[220]新北市板橋區浮洲里25鄰大觀路一段30號
19,板橋區,新北市板橋區中山國民小學附設幼兒園,(02)22755313#181,[220]新北市板橋區中山里21鄰大觀路二段59巷31號
20,板橋區,新北市立溪崑國民中學附設幼兒園,(02)26869727#500,[220]新北市板橋區崑崙里23鄰大觀路三段50巷30號
21,板橋區,新北市板橋區沙崙國民小學附設幼兒園,(02)26812764#851,[220]新北市板橋區溪北里18鄰篤行路二段132號
22,板橋區,新北市立江翠國民中學附設幼兒園,(02)22518007#270,[220]新北市板橋區文化里8鄰松江街63號
23,板橋區,新北市立新埔國民中學附設幼兒園,(02)22572275#288,[220]新北市板橋區新海里1鄰新海路181號
24,板橋區,新北市板橋區文聖國民小學附設幼兒園,(02)22530782#628,[220]新北市板橋區松柏里5鄰文聖街86號
25,板橋區,新北市板橋區重慶國民小學附設幼兒園,(02)29565592#501,[220]新北市板橋區五權里1鄰廣和街31號
26,板橋區,新北市板橋區溪洲國民小學附設幼兒園,(02)26867705#81,[220]新北市板橋區溪福里19鄰金門街289號
27,三重區,新北市三重區二重國民小學附設幼兒園,(02)29846446#190,[241]新北市三重區二重里14鄰大有街10號
28,三重區,新北市立三重幼兒園,(02)89838241,[241]新北市三重區過田里4鄰新北大道一段9號3樓
29,三重區,新北市立二重國民中學附設幼兒園,(02)29800164,[241]新北市三重區福田里1鄰忠孝路三段89號
30,三重區,新北市立三重高級中學附設幼兒園,(02)29760501#410,[241]新北市三重區光明里19鄰集美街212號
31,三重區,新北市三重區集美國民小學附設幼兒園,(02)89725390#150,[241]新北市三重區光明里25鄰集美街10號
32,三重區,新北市三重區三光國民小學附設幼兒園,(02)29753308#672,[241]新北市三重區同安里16鄰大同南路157號
33,三重區,新北市三重區光興國民小學附設幼兒園,(02)29755352#311,[241]新北市三重區光輝里14鄰正義南路62號
34,三重區,新北市立明志國民中學附設幼兒園,(02)29844132#365,[241]新北市三重區重陽里15鄰中正北路107號
35,三重區,新北市三重區修德國民小學附設幼兒園,(02)29800495#637,[241]新北市三重區民生里18鄰重陽路三段3號
36,三重區,新北市三重區正義國民小學附設幼兒園,(02)29853138#1070,[241]新北市三重區正義里1鄰信義西街31號
37,三重區,新北市三重區三重國民小學附設幼兒園,(02)29722095#180,[241]新北市三重區奕壽里2鄰三和路3段1號
38,三重區,新北市三重區光榮國民小學附設幼兒園,(02)29730392#700,[241]新北市三重區奕壽里1鄰介壽路32號
39,三重區,新北市立光榮國民中學附設幼兒園,(02)29780211,[241]新北市三重區奕壽里1鄰介壽路26號
40,三重區,新北市三重區重陽國民小學附設幼兒園,(02)29826272#320,[241]新北市三重區六福里16鄰中正北路113號
41,三重區,新北市立三重幼兒園崇德分班,(02)29725078,[241]新北市三重區崇德里17鄰仁孝街62號1樓
42,三重區,新北市立三重幼兒園厚德分班,(02)29819519,[241]新北市三重區厚德里4鄰忠孝路一段21巷7號1樓、2樓
43,三重區,新北市立三和國民中學附設幼兒園,(02)22879890#755,[241]新北市三重區永盛里15鄰三和路四段216號
44,三重區,新北市三重區永福國民小學附設幼兒園,(02)22876716#891,[241]新北市三重區永福里22鄰永福街66號
45,三重區,新北市立碧華國民中學附設幼兒園,(02)29851121#690,[241]新北市三重區五福里15鄰自強路五段66號
46,三重區,新北市三重區五華國民小學附設幼兒園,(02)28575431,[241]新北市三重區富貴里21鄰集賢路89號
47,三重區,新北市三重區碧華國民小學附設幼兒園,(02)28577792#770,[241]新北市三重區富福里20鄰五華街160號
48,三重區,新北市三重區興穀國民小學附設幼兒園,(02)29990725#33,[241]新北市三重區五谷里7鄰五谷王北街46號
49,三重區,新北市三重區厚德國民小學附設幼兒園,(02)29868825#53,[241]新北市三重區立德里4鄰忠孝路一段70號1樓
50,中和區,新北市中和區光復國民小學附設幼兒園,(02)32348654#265,[235]新北市中和區中原里7鄰光環路2段1號
51,中和區,新北市立漳和國民中學附設幼兒園,(02)22488616#252,[235]新北市中和區枋寮里19鄰廣福路39號
52,中和區,新北市中和區中和國民小學附設幼兒園,(02)22492550#280,[235]新北市中和區漳和里3鄰中和路100號
53,中和區,新北市中和區秀山國民小學附設幼兒園,(02)29434353#870,[235]新北市中和區秀山里1鄰立人街2號
54,中和區,新北市立中和幼兒園秀山分班,(02)29499765,[235]新北市中和區秀景里19鄰成功路97巷7號
55,中和區,新北市立中和幼兒園飛駝分班,(02)29409056,[235]新北市中和區華南里9鄰忠孝街48號
56,中和區,新北市中和區興南國民小學附設幼兒園,(02)29422349#870,[235]新北市中和區忠孝里27鄰興南路1段135巷24號
57,中和區,新北市立中和國民中學附設幼兒園,(02)29422270#295,[235]新北市中和區忠孝里11鄰興南路二段三巷十七號
58,中和區,新北市中和區景新國民小學附設幼兒園,(02)29448021#860861862,[235]新北市中和區景南里31鄰景新街467巷37號
59,中和區,新北市立中和幼兒園,(02)89423942,[235]新北市中和區外南里2鄰南山路236號3樓
60,中和區,新北市立中和幼兒園碧湖分班,(02)22478784,[235]新北市中和區錦昌里11鄰圓通路367巷15-1號1~3樓
61,中和區,新北市中和區積穗國民小學附設幼兒園,(02)32347679#11,[235]新北市中和區文元里1鄰員山路154號
62,中和區,新北市立自強國民中學附設幼兒園,(02)22259469#852,[235]新北市中和區明穗里24鄰莒光路191號
63,中和區,新北市中和區自強國民小學附設幼兒園,(02)29557936#860,[235]新北市中和區自強里3鄰莒光路200號
64,中和區,新北市立中和幼兒園慈光分班,(02)29540289,[235]新北市中和區明德里11鄰民德路311號1樓
65,中和區,新北市中和區復興國民小學附設幼兒園,(02)22472993#251,[235]新北市中和區中興里30鄰復興路301巷6號
66,中和區,新北市中和區錦和國民小學附設幼兒園,(02)22479495#250,[235]新北市中和區錦中里16鄰圓通路292號
67,永和區,新北市永和區頂溪國民小學附設幼兒園,(02)89790643#1107,[234]新北市永和區文化里9鄰文化路133號
68,永和區,新北市立永和幼兒園大同分班,(02)29239440,[234]新北市永和區永成里9鄰新生路26號
69,永和區,新北市永和區永平國民小學附設幼兒園,(02)89217496#806,[234]新北市永和區保安里27鄰保生路25號
70,永和區,新北市立永和幼兒園,(02)29483199,[234]新北市永和區民族里12鄰民權路60號1樓至3樓
71,永和區,新北市永和區秀朗國民小學附設幼兒園,(02)29420451#5701,[234]新北市永和區民權里1鄰得和路202號
72,永和區,新北市立永和幼兒園忠孝分班,(02)29249440,[234]新北市永和區頂溪里7鄰忠孝街26巷8號1樓至2樓
73,永和區,新北市永和區永和國民小學附設幼兒園,(02)29213160#600,[234]新北市永和區潭墘里20鄰秀朗路一段120號
74,永和區,新北市立永和幼兒園博愛分班,(02)89252771,[234]新北市永和區復興里13鄰竹林路39巷35號1樓至3樓
75,永和區,新北市立永和幼兒園保生分班,(02)29250276,[234]新北市永和區新生里18鄰新生路218號1樓、2樓
76,永和區,新北市立福和國民中學附設幼兒園,(02)29289493#300,[234]新北市永和區秀和里18鄰永利路71號
77,永和區,新北市永和區網溪國民小學附設幼兒園,(02)89264470#850,[234]新北市永和區上林里21鄰竹林路79號
78,永和區,新北市立永和幼兒園福和分班,(02)89275508,[234]新北市永和區桂林里7鄰竹林路119巷53弄16號1樓至3樓
79,永和區,新北市立永和幼兒園民生分班,(02)29254694,[234]新北市永和區永樂里1鄰安樂路431-1號2樓
80,新莊區,新北市新莊區頭前國民小學附設幼兒園,(02)29920238#860,[242]新北市新莊區頭前里10鄰化成路231號
81,新莊區,新北市新莊區豐年國民小學附設幼兒園,(02)22017102#64,[242]新北市新莊區國泰里2鄰瓊泰路116號
82,新莊區,新北市新莊區新泰國民小學附設幼兒園,(02)29971005#117,[242]新北市新莊區忠孝里27鄰公園一路91號
83,新莊區,新北市新莊區裕民國民小學附設幼兒園,(02)29062407#38,[242]新北市新莊區裕民里21鄰裕民街123號
84,新莊區,新北市新莊區新莊國民小學附設幼兒園,(02)29931201#804,[242]新北市新莊區立人里1鄰中正路86號
85,新莊區,新北市立頭前國民中學附設幼兒園,(02)85222862#605,[242]新北市新莊區和平里21鄰中原路2號
86,新莊區,新北市新莊區中港國民小學附設幼兒園,(02)89790730#900,[242]新北市新莊區立志里11鄰中港一街142號
87,新莊區,新北市新莊區國泰國民小學附設幼兒園,(02)29043693#601,[242]新北市新莊區營盤里1鄰中正路386號
88,新莊區,新北市新莊區光華國民小學附設幼兒園,(02)22058866#855,[242]新北市新莊區光明里1鄰龍安路452號
89,新莊區,新北市新莊區思賢國民小學附設幼兒園,(02)29980443#806,[242]新北市新莊區自立里9鄰自立街229號
90,新莊區,新北市新莊區丹鳳國民小學附設幼兒園,(02)29035355#151,[242]新北市新莊區雙鳳里14鄰新北大道七段437號
91,新莊區,新北市立新莊幼兒園,(02)29911476,[242]新北市新莊區中華里14鄰中港路350號
92,新莊區,新北市新莊區中信國民小學附設幼兒園,(02)85211131#603,[242]新北市新莊區中原里1鄰中信街168號
93,新莊區,新北市立新泰國民中學附設幼兒園,(02)29960745#700,[242]新北市新莊區立泰里14鄰新泰路359號
94,新莊區,新北市立新莊幼兒園中心分班,(02)29089162,[242]新北市新莊區福營里14鄰福營路277號
95,新莊區,新北市新莊區興化國民小學附設幼兒園,(02)22991001#108,[242]新北市新莊區福興里2鄰五工二路50巷2號
96,新莊區,新北市新莊區昌隆國民小學附設幼兒園,(02)29962351#811,[242]新北市新莊區昌隆里6鄰昌隆街63號
97,新莊區,新北市新莊區榮富國民小學附設幼兒園,(02)22769020#871,[242]新北市新莊區中平里7鄰中和街193號
98,新莊區,新北市立新莊幼兒園三合分班,(02)22030814,[242]新北市新莊區泰豐里6鄰瓊林路34號
99,新莊區,新北市新莊區民安國民小學附設幼兒園,(02)22056777#91.92,[242]新北市新莊區民全里1鄰民安路261號
100,新店區,新北市新店區大豐國民小學附設幼兒園,(02)22190159#21,[231]新北市新店區大豐里17鄰民族路108號
101,新店區,新北市立安康高級中學附設幼兒園,(02)2211-1743#830,[231]新北市新店區柴埕里30鄰安興路25號
102,新店區,新北市新店區新和國民小學附設幼兒園,(02)29400170#860,[231]新北市新店區永安里3鄰安和路三段100號
103,新店區,新北市新店區安坑國民小學附設幼兒園,(02)22119759#19,[231]新北市新店區公崙里17鄰安忠路36號
104,新店區,新北市立新店幼兒園雙城分班,(02)22150154,[231]新北市新店區雙城里7鄰安康路三段165巷2弄29號
105,新店區,新北市新店區雙城國民小學附設幼兒園,(02)22156511#310,[231]新北市新店區雙城里11鄰安康路3段322號
106,新店區,新北市新店區青潭國民小學附設幼兒園,(02)22173146#250,[231]新北市新店區美潭里3鄰北宜路二段八十號
107,新店區,新北市新店區雙峰國民小學附設幼兒園,(02)22174543#107,[231]新北市新店區雙坑里1鄰北宜路三段66號
108,新店區,新北市新店區屈尺國民小學附設幼兒園,(02)26667490#15,[231]新北市新店區屈尺里10鄰屈尺路55號
109,新店區,新北市新店區龜山國民小學附設幼兒園,(02)26667317#21,[231]新北市新店區龜山里3鄰新烏路3段99巷10號
110,新店區,新北市新店區直潭國民小學附設幼兒園,(02)26667278#806,[231]新北市新店區直潭里20鄰直潭路92號
111,新店區,新北市立新店幼兒園新店分班,(02)29110175,[231]新北市新店區新店里11鄰新店路207號1、2樓
112,新店區,新北市新店區新店國民小學附設幼兒園,(02)29103483#803,[231]新北市新店區國校里10鄰新店路2號
113,新店區,新北市新店區北新國民小學附設幼兒園,(02)29189300#134,[231]新北市新店區張北里9鄰寶橋路8號
114,新店區,新北市立五峰國民中學附設幼兒園,(02)29112005#324,[231]新北市新店區五?里3鄰中興路一段253號
115,新店區,新北市新店區中正國民小學附設幼兒園,(02)29125432#851,[231]新北市新店區中正里22鄰三民路36號
116,新店區,新北市立新店幼兒園和平分班,(02)22180160,[231]新北市新店區和平里10鄰民生路147號
117,新店區,新北市立新店幼兒園,(02)29419045,[231]新北市新店區新和里12鄰新和街109號1、2樓
118,樹林區,新北市樹林區三多國民小學附設幼兒園,(02)26880698#160,[238]新北市樹林區三福里23鄰三福街52號
119,樹林區,新北市立樹林幼兒園圳安分班,(02)26837375,[238]新北市樹林區圳安里1鄰俊英街98之1號
120,樹林區,新北市樹林區文林國民小學附設幼兒園,(02)26812625#880,[238]新北市樹林區潭底里32鄰千歲街59號
121,樹林區,新北市樹林區樹林國民小學附設幼兒園,(02)26812014#122,[238]新北市樹林區樹西里13鄰育英街176號
122,樹林區,新北市立樹林幼兒園,(02)26838354,[238]新北市樹林區樹南里3鄰文化街15號
123,樹林區,新北市樹林區育林國民小學附設幼兒園,(02)26832112#602,[238]新北市樹林區樹南里14鄰復興路395號
124,樹林區,新北市樹林區大同國民小學附設幼兒園,(02)86865486#616,[238]新北市樹林區大同里2鄰大同街43號
125,樹林區,新北市立樹林幼兒園彭厝分班,(02)86843370,[238]新北市樹林區大同里4鄰太平路56巷43號
126,樹林區,新北市樹林區彭福國民小學附設幼兒園,(02)86866589#106,[238]新北市樹林區和平里11鄰忠孝街30號
127,樹林區,新北市立柑園國民中學附設幼兒園,(02)26801958#101,[238]新北市樹林區柑園里6鄰柑園街2段125號
128,樹林區,新北市樹林區武林國民小學附設幼兒園,(02)26871152,[238]新北市樹林區金寮里8鄰保安街二段151號
129,樹林區,新北市樹林區山佳國民小學附設幼兒園,(02)26806673#863,[238]新北市樹林區山佳里15鄰中山路三段5號
130,樹林區,新北市樹林區育德國民小學附設幼兒園,(02)26805557#140,[238]新北市樹林區中山里5鄰佳園路一段34號
131,樹林區,新北市立樹林幼兒園山佳分班,(02)26805142,[238]新北市樹林區中山里1鄰中山路三段40號
132,鶯歌區,新北市立鶯歌國民中學附設幼兒園,(02)26701461#266,[239]新北市鶯歌區同慶里13鄰尖山埔路108號
133,鶯歌區,新北市鶯歌區鶯歌國民小學附設幼兒園,(02)26792038#251,[239]新北市鶯歌區同慶里1鄰尖山埔路106號
134,鶯歌區,新北市立尖山國民中學附設幼兒園,(02)26771462,[239]新北市鶯歌區尖山里16鄰國中街1號
135,鶯歌區,新北市鶯歌區二橋國民小學附設幼兒園,(02)26792364#271,[239]新北市鶯歌區二橋里2鄰中正三路106號
136,鶯歌區,新北市立鳳鳴國民中學附設幼兒園,(02)26780609#232,[239]新北市鶯歌區鳳鳴里16鄰永和街33號
137,鶯歌區,新北市鶯歌區鳳鳴國民小學附設幼兒園,(02)26797554#501,[239]新北市鶯歌區鳳鳴里18鄰永和街120號
138,鶯歌區,新北市鶯歌區永吉國民小學附設幼兒園,(02)26704177#601,[239]新北市鶯歌區永吉里4鄰德昌二街2號
139,鶯歌區,新北市鶯歌區中湖國民小學附設幼兒園,(02)86775640,[239]新北市鶯歌區中湖里9鄰中湖街25號
140,鶯歌區,新北市立鶯歌幼兒園,(02)26781259#18,[239]新北市鶯歌區中湖里7鄰大湖路336號
141,鶯歌區,新北市鶯歌區建國國民小學附設幼兒園,(02)26709228#160,[239]新北市鶯歌區建國里18鄰育英街2號
142,三峽區,新北市三峽區三峽國民小學附設幼兒園,(02)26711018#850,[237]新北市三峽區永?里16鄰中山路16號
143,三峽區,新北市立三峽國民中學附設幼兒園,(02)26711043#300,[237]新北市三峽區鳶山里6鄰復興路238號
144,三峽區,新北市立三峽幼兒園龍埔分班,(02)26733873,[237]新北市三峽區龍埔里6鄰三樹路214巷9號
145,三峽區,新北市三峽區大埔國民小學附設幼兒園,(02)26712523#140,[237]新北市三峽區大埔里17鄰大埔路130號
146,三峽區,新北市三峽區民義國民小學附設幼兒園,(02)26711895#841,[237]新北市三峽區嘉添里2鄰白雞路40號
147,三峽區,新北市三峽區五寮國民小學附設幼兒園,(02)26720298#30,[237]新北市三峽區五寮里14鄰69號
148,三峽區,新北市三峽區插角國民小學附設幼兒園,(02)26720230#840,[237]新北市三峽區插角里14鄰39號
149,三峽區,新北市立三峽幼兒園中興分班,(02)86763332#28,[237]新北市三峽區溪南里7鄰介壽路二段136巷63號
150,三峽區,新北市立三峽幼兒園,(02)86762565,[237]新北市三峽區溪東里10鄰溪東路218巷1號2樓
151,三峽區,新北市三峽區建安國民小學附設幼兒園,(02)26726783#105,[237]新北市三峽區安坑里15鄰建安路67號
152,三峽區,新北市三峽區介壽國民小學附設幼兒園,(02)26712392#60,[237]新北市三峽區介壽里21鄰大同路1號
153,三峽區,新北市立安溪國民中學附設幼兒園,(02)26717851#501,[237]新北市三峽區中正里14鄰大同路135號
154,淡水區,新北市淡水區中泰國民小學附設幼兒園,(02)28012033#123,[251]新北市淡水區中和里9鄰北勢子5號
155,淡水區,新北市淡水區屯山國民小學附設幼兒園,(02)28012591#850,[251]新北市淡水區屯山里6鄰淡金路5段111號
156,淡水區,新北市淡水區興仁國民小學附設幼兒園,(02)26262151,[251]新北市淡水區興仁里4鄰興仁路101巷10號
157,淡水區,新北市立忠山實驗小學附設幼兒園,(02)26216139#850,[251]新北市淡水區忠山里16鄰行忠路899號
158,淡水區,新北市淡水區育英國民小學附設幼兒園,(02)26214390#114,[251]新北市淡水區埤島里4鄰埤頭14號
159,淡水區,新北市淡水區新興國民小學附設幼兒園,(02)26203646#850,[251]新北市淡水區新興里21鄰新興街123號
160,淡水區,新北市立淡水幼兒園,(02)26203130#35,[251]新北市淡水區水碓里17鄰中山北路1段158號1樓
161,淡水區,新北市淡水區新市國民小學附設幼兒園,(02)26262141#860,[251]新北市淡水區北投里17鄰中山北路2段200號1樓
162,淡水區,新北市淡水區水源國民小學附設幼兒園,(02)26211347#14,[251]新北市淡水區水源里9鄰北新路2段15號
163,淡水區,新北市淡水區坪頂國民小學附設幼兒園,(02)86263105#14,[251]新北市淡水區坪頂里3鄰小坪頂18號
164,淡水區,新北市立淡水幼兒園福德分班,(02)28098643,[251]新北市淡水區福德里17鄰自強路201巷43號1樓、45號1樓、47號1樓
165,淡水區,新北市立淡水幼兒園竹圍分班,(02)28097563#11,[251]新北市淡水區民生里19鄰民生路27號1、2、3樓
166,淡水區,新北市淡水區竹圍國民小學附設幼兒園,(02)28091475#72,[251]新北市淡水區八勢里2鄰中正東路2段145號
167,淡水區,新北市淡水區淡水國民小學附設幼兒園,(02)26212755#140,[251]新北市淡水區協元里4鄰中山路160號
168,淡水區,新北市淡水區文化國民小學附設幼兒園,(02)26299775#873,[251]新北市淡水區文化里8鄰真理街6號1樓
169,淡水區,新北市立淡水國民中學附設幼兒園,(02)26212758#27,[251]新北市淡水區文化里10鄰真理街10號
170,淡水區,新北市淡水區天生國民小學附設幼兒園,(02)28052695#852,[251]新北市淡水區油車里12鄰淡海路72巷26號
171,淡水區,新北市淡水區鄧公國民小學附設幼兒園,(02)26297121#160,[251]新北市淡水區學府里4鄰學府路99號
172,汐止區,新北市汐止區汐止國民小學附設幼兒園,(02)26477271#602,[221]新北市汐止區智慧里7鄰大同路二段313號
173,汐止區,新北市汐止區崇德國民小學附設幼兒園,(02)86489616,[221]新北市汐止區茄苳里1鄰茄苳路158號
174,汐止區,新北市汐止區長安國民小學附設幼兒園,(02)86477275,[221]新北市汐止區長安里11鄰長興街1段80號
175,汐止區,新北市汐止區保長國民小學附設幼兒園,(02)86482502#140,[221]新北市汐止區保安里8鄰大同路三段553號
176,汐止區,新北市汐止區北港國民小學附設幼兒園,(02)26463107,[221]新北市汐止區拱北里13鄰汐萬路二段279號
177,汐止區,新北市汐止區金龍國民小學附設幼兒園,(02)26959941#270,[221]新北市汐止區北峰里6鄰明峰街201號
178,汐止區,新北市汐止區白雲國民小學附設幼兒園,(02)26403909#840,[221]新北市汐止區福山里6鄰民權街二段90號
179,汐止區,新北市汐止區北峰國民小學附設幼兒園,(02)26941817#270,[221]新北市汐止區中興里32鄰環河街1號
180,汐止區,新北市汐止區樟樹國民小學附設幼兒園,(02)26421407#5601,[221]新北市汐止區厚德里6鄰樟樹一路141巷2號
181,汐止區,新北市立青山國民中小學附設幼兒園,(02)26917875#289,[221]新北市汐止區自強里20鄰莊敬街33號
182,汐止區,新北市汐止區秀峰國民小學附設幼兒園,(02)26480611#807,[221]新北市汐止區秀山里5鄰仁愛路90號
183,瑞芳區,新北市瑞芳區瑞芳國民小學附設幼兒園,(02)24972058#155,[224]新北市瑞芳區龍潭里10鄰中山路2號
184,瑞芳區,新北市瑞芳區義方國民小學附設幼兒園,(02)24970922,[224]新北市瑞芳區龍山里10鄰逢甲路360號
185,瑞芳區,新北市立瑞芳幼兒園爪峰分班,(02)24979954,[224]新北市瑞芳區爪?里5鄰三爪子坑路66之6號
186,瑞芳區,新北市瑞芳區瑞柑國民小學附設幼兒園,(02)24971009#31,[224]新北市瑞芳區柑坪里12鄰明燈路1段18巷13號
187,瑞芳區,新北市立瑞芳幼兒園,(02)24979946,[224]新北市瑞芳區東和里1鄰中山路48號之10
188,瑞芳區,新北市瑞芳區瑞亭國民小學附設幼兒園,(02)24971726#205,[224]新北市瑞芳區上天里3鄰四腳亭埔路23號
189,瑞芳區,新北市瑞芳區吉慶國民小學附設幼兒園,(02)24576405#650,[224]新北市瑞芳區吉安里6鄰大埔路95號
190,瑞芳區,新北市瑞芳區猴硐國民小學附設幼兒園,(02)24960450#120,[224]新北市瑞芳區弓橋里2鄰九芎橋路69-1號
191,瑞芳區,新北市瑞芳區九份國民小學附設幼兒園,(02)24972263#28,[224]新北市瑞芳區永慶里10鄰崙頂路145號
192,瑞芳區,新北市瑞芳區瓜山國民小學附設幼兒園,(02)24962036#207,[224]新北市瑞芳區石山里4鄰五號路306號
193,瑞芳區,新北市瑞芳區濂洞國民小學附設幼兒園,(02)24961330#21,[224]新北市瑞芳區?洞里11鄰洞頂路101巷80號
194,瑞芳區,新北市瑞芳區瑞濱國民小學附設幼兒園,(02)24978184#141,[224]新北市瑞芳區瑞濱里4鄰瑞濱路34號
195,瑞芳區,新北市瑞芳區鼻頭國民小學附設幼兒園,(02)24911571#18,[224]新北市瑞芳區鼻頭里5鄰鼻頭路99號
196,瑞芳區,新北市立瑞芳國民中學附設幼兒園,(02)24972145#234,[224]新北市瑞芳區新峰里2鄰三爪子坑路1號
197,土城區,新北市土城區土城國民小學附設幼兒園,(02)22700177#881,[236]新北市土城區埤塘里12鄰興城路17號
198,土城區,新北市土城區樂利國民小學附設幼兒園,(02)22662568#860,[236]新北市土城區日新里11鄰裕生路65號
199,土城區,新北市立土城幼兒園清水分班,(02)82625344,[236]新北市土城區清和里1鄰青雲路368號2、3樓
200,土城區,新北市土城區清水國民小學附設幼兒園,(02)22618316#880,[236]新北市土城區清溪里36鄰金城路二段356號
201,土城區,新北市立土城國民中學附設幼兒園,(02)22675135#110,[236]新北市土城區永寧里4鄰永寧路18號
202,土城區,新北市土城區頂埔國民小學附設幼兒園,(02)22686800#874,[236]新北市土城區頂福里20鄰中央路四段205號
203,土城區,新北市立土城幼兒園大頂埔分班,(02)22682948,[236]新北市土城區頂福里17鄰中州路28巷30號3樓
204,土城區,新北市土城區廣福國民小學附設幼兒園,(02)22626782#600,[236]新北市土城區廣福里18鄰學府路一段127號
205,土城區,新北市土城區安和國民小學附設幼兒園,(02)22610943,[236]新北市土城區安和里16鄰延和路23號
206,土城區,新北市立土城幼兒園,(02)22607244,[236]新北市土城區中正里16鄰裕民路193之1號
207,蘆洲區,新北市蘆洲區忠義國民小學附設幼兒園,(02)22899591#129,[247]新北市蘆洲區正義里3鄰光榮路99號
208,蘆洲區,新北市立蘆洲國民中學附設幼兒園,(02)22811571#515,[247]新北市蘆洲區中原里5鄰中正路265號
209,蘆洲區,新北市蘆洲區仁愛國民小學附設幼兒園,(02)2283-8815#870,[247]新北市蘆洲區水湳里15鄰民族路488號
210,蘆洲區,新北市蘆洲區鷺江國民小學附設幼兒園,(02)22819980#602,[247]新北市蘆洲區鷺江里16鄰民族路7號
211,蘆洲區,新北市蘆洲區蘆洲國民小學附設幼兒園,(02)22816202#108,[247]新北市蘆洲區保和里15鄰中正路100號
212,蘆洲區,新北市立蘆洲幼兒園,(02)82852747,[247]新北市蘆洲區永樂里3鄰永平街1號2樓
213,蘆洲區,新北市蘆洲區成功國民小學附設幼兒園,(02)22858998#890,[247]新北市蘆洲區成功里27鄰長安街311號
214,五股區,新北市五股區更寮國民小學附設幼兒園,(02)29824591#600,[248]新北市五股區興珍里1鄰四維路2號
215,五股區,新北市立五股幼兒園更新分班,(02)29826950#11,[248]新北市五股區更寮里8鄰更洲路47號2樓
216,五股區,新北市五股區成州國民小學附設幼兒園,(02)22933613#70,[248]新北市五股區成州里10鄰成泰路三段493號
217,五股區,新北市立五股幼兒園成州分班,(02)22951914,[248]新北市五股區成州里22鄰西雲路225巷4號1樓
218,五股區,新北市立五股幼兒園,(02)22936620,[248]新北市五股區成功里22鄰西雲路165號2樓、3樓
219,五股區,新北市五股區五股國民小學附設幼兒園,(02)22917191#842,[248]新北市五股區五股里1鄰成泰路二段49號
220,五股區,新北市立五股幼兒園德音分班,(02)82959856,[248]新北市五股區德音里9鄰蓬萊路6巷45號1樓
221,五股區,新北市立五股幼兒園陸一分班,(02)82923039,[248]新北市五股區陸一里9鄰六合街70號1樓
222,五股區,新北市五股區德音國民小學附設幼兒園,(02)22924152#890,[248]新北市五股區水碓里25鄰明德路2號
223,五股區,新北市立五股幼兒園水碓分班,(02)22925032,[248]新北市五股區水碓里31鄰水碓二路1號2樓
224,泰山區,新北市立泰山國民中學附設幼兒園,(02)22962519#171,[243]新北市泰山區山腳里10鄰泰林路二段498號
225,泰山區,新北市泰山區泰山國民小學附設幼兒園,(02)2909-8842#180,[243]新北市泰山區山腳里32鄰泰林路二段255號
226,泰山區,新北市立泰山幼兒園,(02)29099948#205,[243]新北市泰山區同榮里27鄰公園路52號1樓及2樓
227,泰山區,新北市泰山區同榮國民小學附設幼兒園,(02)22968551#150,[243]新北市泰山區義學里2鄰公園路33號
228,泰山區,新北市立泰山幼兒園明志分班,(02)29062927,[243]新北市泰山區明志里19鄰明志路二段426號3樓
229,泰山區,新北市立泰山幼兒園貴和分班,(02)29025378,[243]新北市泰山區貴和里31鄰明志路三段365號2樓
230,泰山區,新北市泰山區明志國民小學附設幼兒園,(02)29062588,[243]新北市泰山區泰友里14鄰新生路2號
231,林口區,新北市林口區林口國民小學附設幼兒園,(02)26011010#875,[244]新北市林口區菁湖里4鄰林口路76號
232,林口區,新北市立林口幼兒園湖北分班,(02)26019385,[244]新北市林口區湖北里10鄰後湖17-6號1樓
233,林口區,新北市林口區頭湖國民小學附設幼兒園,(02)26080766#860,[244]新北市林口區湖南里10鄰民權路101號
234,林口區,新北市林口區南勢國民小學附設幼兒園,(02)26091020#711,[244]新北市林口區南勢里1鄰南勢五街2號
235,林口區,新北市立林口幼兒園,(02)26032720,[244]新北市林口區東勢里42鄰文化一路1段142號、142之1號、142之2號、142之3號、142之5號、142之6號
236,林口區,新北市林口區興福國民小學附設幼兒園,(02)26062895#300,[244]新北市林口區下福里20鄰10之1號
237,林口區,新北市林口區嘉寶國民小學附設幼兒園,(02)26052716#860,[244]新北市林口區嘉寶里1鄰嘉寶里22號
238,林口區,新北市林口區瑞平國民小學附設幼兒園,(02)26051170,[244]新北市林口區太平里8鄰後坑34之1號
239,林口區,新北市林口區麗林國民小學附設幼兒園,(02)26091520,[244]新北市林口區麗林里29鄰公園路46號
240,林口區,新北市林口區麗園國民小學附設幼兒園,(02)26091061#772,[244]新北市林口區麗園里17鄰忠孝路591號
241,林口區,新北市立崇林國民中學附設幼兒園,(02)26095829#263,[244]新北市林口區麗園里18鄰文化一路一段20號
242,林口區,新北市立林口幼兒園忠孝分班,(02)26009689,[244]新北市林口區麗園里17鄰忠孝路569巷17號1樓
243,深坑區,新北市深坑區深坑國民小學附設幼兒園,(02)26624675#272,[222]新北市深坑區深坑里30鄰文化街45號
244,深坑區,新北市立深坑國民中學附設幼兒園,(02)26621455#38,[222]新北市深坑區深坑里18鄰文化街41號
245,深坑區,新北市立深坑幼兒園,(02)26648030#234,[222]新北市深坑區深坑里30鄰平埔街5巷1號
246,深坑區,新北市立深坑幼兒園土庫分班,(02)26641773,[222]新北市深坑區土庫里17鄰北深路1段83巷8弄36號1樓
247,石碇區,新北市石碇區石碇國民小學附設幼兒園,(02)26631244#21,[223]新北市石碇區石碇里6鄰石碇西街15號
248,石碇區,新北市石碇區永定國民小學附設幼兒園,(02)26631288#24,[223]新北市石碇區永定里8鄰靜安路1段245號1樓
249,石碇區,新北市石碇區和平國民小學附設幼兒園,(02)26631990,[223]新北市石碇區豐林里2鄰楓子林32之1號
250,坪林區,新北市坪林區坪林國民小學附設幼兒園,(02)26656213#38,[232]新北市坪林區坪林里1鄰坪林街114號
251,坪林區,新北市立坪林幼兒園,(02)26657104,[232]新北市坪林區坪林里1鄰國中路2號
252,三芝區,新北市三芝區三芝國民小學附設幼兒園,(02)26362005#160,[252]新北市三芝區埔頭里28鄰育英街22號
253,三芝區,新北市立三芝幼兒園福成分班,(02)26361351,[252]新北市三芝區埔頭里27鄰中山路一段14號
254,三芝區,新北市立三芝幼兒園,(02)26360371,[252]新北市三芝區埔坪里13鄰民生街31號2樓
255,三芝區,新北市三芝區興華國民小學附設幼兒園,(02)26371366#207,[252]新北市三芝區興華里1鄰5號
256,石門區,新北市石門區老梅國民小學附設幼兒園,(02)26381258#15,[253]新北市石門區老梅里6鄰老梅路10號
257,石門區,新北市石門區石門國民小學附設幼兒園,(02)26381263#17,[253]新北市石門區尖鹿里1鄰中央路9號
258,石門區,新北市石門區乾華國民小學附設幼兒園,(02)26381503,[253]新北市石門區草里里4鄰阿里荖33-1號1樓、2樓
259,八里區,新北市立八里幼兒園龍源分班,(02)86303477#500,[249]新北市八里區龍源里15鄰龍米路一段223號2樓
260,八里區,新北市八里區大崁國民小學附設幼兒園,(02)86305678#190,[249]新北市八里區大崁里13鄰忠八街2號
261,八里區,新北市立八里幼兒園大埤頂分班,(02)86303477#300,[249]新北市八里區大崁里3鄰中山路1段95號1樓
262,八里區,新北市八里區八里國民小學附設幼兒園,(02)26102217#3103,[249]新北市八里區舊城里7鄰中山路2段338號
263,八里區,新北市立八里幼兒園,(02)86303477#131,[249]新北市八里區舊城里18鄰舊城路19號2F
264,平溪區,新北市平溪區菁桐國民小學附設幼兒園,(02)24951009#16,[226]新北市平溪區菁桐里2鄰菁桐街45號
265,平溪區,新北市平溪區平溪國民小學附設幼兒園,(02)24951038#208,[226]新北市平溪區平溪里4鄰平溪街56號
266,平溪區,新北市平溪區十分國民小學附設幼兒園,(02)24958305#30,[226]新北市平溪區十分里6鄰十分街157號
267,雙溪區,新北市雙溪區雙溪國民小學附設幼兒園,(02)24931005#50,[227]新北市雙溪區共和里2鄰東榮街54號
268,雙溪區,新北市雙溪區牡丹國民小學附設幼兒園,(02)24931240#214,[227]新北市雙溪區三貂里11鄰政光路3號
269,雙溪區,新北市雙溪區上林國民小學附設幼兒園,(02)24931671#24,[227]新北市雙溪區上林里11鄰內平林60號1樓
270,貢寮區,新北市貢寮區貢寮國民小學附設幼兒園,(02)24941274#51,[228]新北市貢寮區雙玉里10鄰學苑街7號
271,貢寮區,新北市貢寮區貢寮國民小學附設幼兒園龍門分班,(02)24942113,[228]新北市貢寮區龍門里1鄰龍門街60號之1
272,貢寮區,新北市貢寮區福隆國民小學附設幼兒園,(02)24992150,[228]新北市貢寮區福隆里5鄰東興街35號
273,貢寮區,新北市貢寮區澳底國民小學附設幼兒園,(02)24902793,[228]新北市貢寮區真理里4鄰延平街10號
274,貢寮區,新北市貢寮區和美國民小學附設幼兒園,(02)24909035#19,[228]新北市貢寮區和美里15鄰龍洞街1之9號
275,金山區,新北市立金山幼兒園,(02)24989056#26,[208]新北市金山區美田里2鄰中山路236號
276,金山區,新北市立金山幼兒園中正中華分班,(02)24989056#26,[208]新北市金山區美田里25鄰中正路134號1、2樓
277,金山區,新北市金山區金山國民小學附設幼兒園,(02)24981125#234,[208]新北市金山區美田里2鄰中山路234號
278,金山區,新北市金山區三和國民小學附設幼兒園,(02)24080417#15,[208]新北市金山區重和里11鄰六股林口38號
279,金山區,新北市金山區中角國民小學附設幼兒園,(02)24986498,[208]新北市金山區萬壽里2鄰海興路49號
280,金山區,新北市金山區金美國民小學附設幼兒園,(02)24986503#704,[208]新北市金山區金美里16鄰忠孝一路111號
281,萬里區,新北市立萬里幼兒園,(02)24921670,[207]新北市萬里區萬里里5鄰瑪鋉路221號2樓
282,萬里區,新北市萬里區萬里國民小學附設幼兒園,(02)24922034#60,[207]新北市萬里區萬里里6鄰瑪鋉路18號
283,萬里區,新北市萬里區野柳國民小學附設幼兒園,(02)24922512#18,[207]新北市萬里區野柳里5鄰港東路167號
284,萬里區,新北市萬里區大鵬國民小學附設幼兒園,(02)24988131#37,[207]新北市萬里區大鵬里7鄰加投路14號
285,萬里區,新北市萬里區大坪國民小學附設幼兒園,(02)24929461#71,[207]新北市萬里區雙興里13鄰大坪路1號
286,烏來區,新北市立烏來國民中小學附設幼兒園,(02)26616482#60,[233]新北市烏來區烏來里3鄰啦卡路5號
287,烏來區,新北市立烏來幼兒園,(02)26616101,[233]新北市烏來區烏來里13鄰環山路82巷98號
288,烏來區,新北市烏來區福山國民小學附設幼兒園,(02)26616124#500,[233]新北市烏來區福山里2鄰李茂岸56號
